{
  "type": "FeatureCollection",
  "features": [
    {
      "type": "Feature",
      "properties": {
        "norad_id": 34556,
        "name": "COSMOS 2251 DEB",
        "group": "cosmos-2251-debris",
        "lat": 48.523001342526854,
        "lon": -94.20010743395063,
        "alt_km": 626.8289049214245,
        "timestamp": "2025-12-22T23:36:21.111158+00:00",
        "meta_object_name": "COSMOS 2251 DEB",
        "meta_object_id": "1993-036US",
        "meta_epoch": "2025-12-22T06:53:07.587168",
        "meta_mean_motion": 14.78074714,
        "meta_eccentricity": 0.000664,
        "meta_inclination": 74.0163,
        "meta_ra_of_asc_node": 106.0885,
        "meta_arg_of_pericenter": 165.6456,
        "meta_mean_anomaly": 217.5368,
        "meta_ephemeris_type": 0,
        "meta_classification_type": "U",
        "meta_norad_cat_id": 34556,
        "meta_element_set_no": 999,
        "meta_rev_at_epoch": 88470,
        "meta_bstar": 0.002445239,
        "meta_mean_motion_dot": 0.00017698,
        "meta_mean_motion_ddot": 0,
        "tle_line1": "1 34556U 93036US  25356.28689337  .00017698  00000+0  24452-2 0  9990",
        "tle_line2": "2 34556  74.0163 106.0885 0006640 165.6456 217.5368 14.78074714884705"
      },
      "geometry": {
        "type": "Point",
        "coordinates": [
          -94.20010743395063,
          48.523001342526854
        ]
      }
    },
    {
      "type": "Feature",
      "properties": {
        "norad_id": 34560,
        "name": "COSMOS 2251 DEB",
        "group": "cosmos-2251-debris",
        "lat": 7.170826059762804,
        "lon": -59.888287441333844,
        "alt_km": 646.814028802427,
        "timestamp": "2025-12-22T23:36:21.111169+00:00",
        "meta_object_name": "COSMOS 2251 DEB",
        "meta_object_id": "1993-036UW",
        "meta_epoch": "2025-12-21T19:39:42.022368",
        "meta_mean_motion": 14.72348108,
        "meta_eccentricity": 0.00139755,
        "meta_inclination": 74.0172,
        "meta_ra_of_asc_node": 124.4457,
        "meta_arg_of_pericenter": 206.7479,
        "meta_mean_anomaly": 276.7329,
        "meta_ephemeris_type": 0,
        "meta_classification_type": "U",
        "meta_norad_cat_id": 34560,
        "meta_element_set_no": 999,
        "meta_rev_at_epoch": 88385,
        "meta_bstar": 0.0017282394,
        "meta_mean_motion_dot": 0.00010939,
        "meta_mean_motion_ddot": 0,
        "tle_line1": "1 34560U 93036UW  25355.81923637  .00010939  00000+0  17282-2 0  9991",
        "tle_line2": "2 34560  74.0172 124.4457 0013975 206.7479 276.7329 14.72348108883854"
      },
      "geometry": {
        "type": "Point",
        "coordinates": [
          -59.888287441333844,
          7.170826059762804
        ]
      }
    },
    {
      "type": "Feature",
      "properties": {
        "norad_id": 34563,
        "name": "COSMOS 2251 DEB",
        "group": "cosmos-2251-debris",
        "lat": 64.00301753631669,
        "lon": -139.4753201667253,
        "alt_km": 739.0616248570786,
        "timestamp": "2025-12-22T23:36:21.111179+00:00",
        "meta_object_name": "COSMOS 2251 DEB",
        "meta_object_id": "1993-036UZ",
        "meta_epoch": "2025-12-22T13:37:02.712864",
        "meta_mean_motion": 14.46538441,
        "meta_eccentricity": 0.00139208,
        "meta_inclination": 74.0365,
        "meta_ra_of_asc_node": 185.3597,
        "meta_arg_of_pericenter": 278.8419,
        "meta_mean_anomaly": 143.9121,
        "meta_ephemeris_type": 0,
        "meta_classification_type": "U",
        "meta_norad_cat_id": 34563,
        "meta_element_set_no": 999,
        "meta_rev_at_epoch": 88339,
        "meta_bstar": 0.00036718775,
        "meta_mean_motion_dot": 1.297e-05,
        "meta_mean_motion_ddot": 0,
        "tle_line1": "1 34563U 93036UZ  25356.56739251  .00001297  00000+0  36719-3 0  9998",
        "tle_line2": "2 34563  74.0365 185.3597 0013920 278.8419 143.9121 14.46538441883392"
      },
      "geometry": {
        "type": "Point",
        "coordinates": [
          -139.4753201667253,
          64.00301753631669
        ]
      }
    },
    {
      "type": "Feature",
      "properties": {
        "norad_id": 34564,
        "name": "COSMOS 2251 DEB",
        "group": "cosmos-2251-debris",
        "lat": -6.363741464285959,
        "lon": -142.7703444740213,
        "alt_km": 747.8525364616362,
        "timestamp": "2025-12-22T23:36:21.111190+00:00",
        "meta_object_name": "COSMOS 2251 DEB",
        "meta_object_id": "1993-036VA",
        "meta_epoch": "2025-12-22T10:35:59.692704",
        "meta_mean_motion": 14.40705848,
        "meta_eccentricity": 0.00193597,
        "meta_inclination": 74.0315,
        "meta_ra_of_asc_node": 220.062,
        "meta_arg_of_pericenter": 322.6148,
        "meta_mean_anomaly": 101.2353,
        "meta_ephemeris_type": 0,
        "meta_classification_type": "U",
        "meta_norad_cat_id": 34564,
        "meta_element_set_no": 999,
        "meta_rev_at_epoch": 88146,
        "meta_bstar": 0.00021971586,
        "meta_mean_motion_dot": 6.77e-06,
        "meta_mean_motion_ddot": 0,
        "tle_line1": "1 34564U 93036VA  25356.44166311  .00000677  00000+0  21972-3 0  9993",
        "tle_line2": "2 34564  74.0315 220.0620 0019359 322.6148 101.2353 14.40705848881462"
      },
      "geometry": {
        "type": "Point",
        "coordinates": [
          -142.7703444740213,
          -6.363741464285959
        ]
      }
    },
    {
      "type": "Feature",
      "properties": {
        "norad_id": 34567,
        "name": "COSMOS 2251 DEB",
        "group": "cosmos-2251-debris",
        "lat": 34.174002323887834,
        "lon": -52.85940414294921,
        "alt_km": 787.3770631067337,
        "timestamp": "2025-12-22T23:36:21.111200+00:00",
        "meta_object_name": "COSMOS 2251 DEB",
        "meta_object_id": "1993-036VD",
        "meta_epoch": "2025-12-22T11:23:39.780672",
        "meta_mean_motion": 14.24027181,
        "meta_eccentricity": 0.00741693,
        "meta_inclination": 74.0408,
        "meta_ra_of_asc_node": 139.2589,
        "meta_arg_of_pericenter": 211.4423,
        "meta_mean_anomaly": 206.1111,
        "meta_ephemeris_type": 0,
        "meta_classification_type": "U",
        "meta_norad_cat_id": 34567,
        "meta_element_set_no": 999,
        "meta_rev_at_epoch": 87263,
        "meta_bstar": 0.00022528011,
        "meta_mean_motion_dot": 5.07e-06,
        "meta_mean_motion_ddot": 0,
        "tle_line1": "1 34567U 93036VD  25356.47476598  .00000507  00000+0  22528-3 0  9990",
        "tle_line2": "2 34567  74.0408 139.2589 0074169 211.4423 206.1111 14.24027181872639"
      },
      "geometry": {
        "type": "Point",
        "coordinates": [
          -52.85940414294921,
          34.174002323887834
        ]
      }
    },
    {
      "type": "Feature",
      "properties": {
        "norad_id": 34569,
        "name": "COSMOS 2251 DEB",
        "group": "cosmos-2251-debris",
        "lat": -21.383125454013054,
        "lon": 173.15803486810302,
        "alt_km": 713.5085651572772,
        "timestamp": "2025-12-22T23:36:21.111210+00:00",
        "meta_object_name": "COSMOS 2251 DEB",
        "meta_object_id": "1993-036VF",
        "meta_epoch": "2025-12-22T07:06:35.283744",
        "meta_mean_motion": 14.24775672,
        "meta_eccentricity": 0.01577457,
        "meta_inclination": 73.9893,
        "meta_ra_of_asc_node": 180.8559,
        "meta_arg_of_pericenter": 7.0614,
        "meta_mean_anomaly": 47.5109,
        "meta_ephemeris_type": 0,
        "meta_classification_type": "U",
        "meta_norad_cat_id": 34569,
        "meta_element_set_no": 999,
        "meta_rev_at_epoch": 87104,
        "meta_bstar": 0.00040817383,
        "meta_mean_motion_dot": 1.056e-05,
        "meta_mean_motion_ddot": 0,
        "tle_line1": "1 34569U 93036VF  25356.29624171  .00001056  00000+0  40817-3 0  9995",
        "tle_line2": "2 34569  73.9893 180.8559 0157745   7.0614  47.5109 14.24775672871042"
      },
      "geometry": {
        "type": "Point",
        "coordinates": [
          173.15803486810302,
          -21.383125454013054
        ]
      }
    },
    {
      "type": "Feature",
      "properties": {
        "norad_id": 34570,
        "name": "COSMOS 2251 DEB",
        "group": "cosmos-2251-debris",
        "lat": 64.5923534379384,
        "lon": -122.2468371731529,
        "alt_km": 751.515749547988,
        "timestamp": "2025-12-22T23:36:21.111221+00:00",
        "meta_object_name": "COSMOS 2251 DEB",
        "meta_object_id": "1993-036VG",
        "meta_epoch": "2025-12-22T13:07:20.317152",
        "meta_mean_motion": 13.99835506,
        "meta_eccentricity": 0.01903579,
        "meta_inclination": 73.9565,
        "meta_ra_of_asc_node": 201.2273,
        "meta_arg_of_pericenter": 81.526,
        "meta_mean_anomaly": 308.5079,
        "meta_ephemeris_type": 0,
        "meta_classification_type": "U",
        "meta_norad_cat_id": 34570,
        "meta_element_set_no": 999,
        "meta_rev_at_epoch": 85738,
        "meta_bstar": 0.00043673475,
        "meta_mean_motion_dot": 7.26e-06,
        "meta_mean_motion_ddot": 0,
        "tle_line1": "1 34570U 93036VG  25356.54676293  .00000726  00000+0  43673-3 0  9993",
        "tle_line2": "2 34570  73.9565 201.2273 0190357  81.5260 308.5079 13.99835506857382"
      },
      "geometry": {
        "type": "Point",
        "coordinates": [
          -122.2468371731529,
          64.5923534379384
        ]
      }
    }
  ]
}